NORAD_CAT_ID,OBJECT_NAME,OBJECT_TYPE,EPOCH,MEAN_MOTION,ECCENTRICITY,INCLINATION,RA_OF_ASC_NODE,ARG_OF_PERICENTER,MEAN_ANOMALY,BSTAR,MEAN_MOTION_DOT,MEAN_MOTION_DDOT,TLE_LINE0,TLE_LINE1,TLE_LINE2,SEMIMAJOR_AXIS,PERIOD,APOGEE,PERIGEE,DECAYED
53418.0,STARLINK-4481,PAYLOAD,2024-01-11 10:58:31,15.08851163,0.000157,53.2187,42.1982,80.6926,279.4243,3.2641e-05,2.32e-06,0.0,0 STARLINK-4481,1 53418U 22097AG  24011.45731374  .00000232  00000-0  32641-4 0  9990,2 53418  53.2187  42.1982 0001570  80.6926 279.4243 15.08851163 79318,6917.846,95.437,540.797,538.625,0.0
53418.0,STARLINK-4481,PAYLOAD,2024-01-12 01:17:00,15.0883556,0.0001436,53.2175,39.5257,86.3963,273.7193,5.1208e-05,5.27e-06,0.0,0 STARLINK-4481,1 53418U 22097AG  24012.05348288  .00000527  00000-0  51208-4 0  9992,2 53418  53.2175  39.5257 0001436  86.3963 273.7193 15.08835560 79409,6917.894,95.438,540.752,538.766,0.0
53418.0,STARLINK-4481,PAYLOAD,2024-01-12 09:13:56,15.08834557,0.0001534,53.2173,38.0384,89.0069,271.1099,4.6619e-05,4.54e-06,0.0,0 STARLINK-4481,1 53418U 22097AG  24012.38468709  .00000454  00000-0  46619-4 0  9998,2 53418  53.2173  38.0384 0001534  89.0069 271.1099 15.08834557 79949,6917.897,95.438,540.823,538.701,0.0
53418.0,STARLINK-4481,PAYLOAD,2024-01-13 07:29:20,15.08845245,0.0001509,53.2171,33.876,82.35,277.7664,-2.5924e-05,-7.01e-06,0.0,0 STARLINK-4481,1 53418U 22097AG  24013.31204388 -.00000701  00000-0 -25924-4 0  9996,2 53418  53.2171  33.8760 0001509  82.3500 277.7664 15.08845245 79593,6917.864,95.437,540.773,538.685,0.0
53418.0,STARLINK-4481,PAYLOAD,2024-01-14 07:20:07,15.088592,0.0001894,53.2187,29.4179,53.0,307.1166,-0.00021433,-3.7e-05,0.0,0 STARLINK-4481,1 53418U 22097AG  24014.30564246 -.00003700  00000-0 -21433-3 0  9990,2 53418  53.2187  29.4179 0001894  53.0000 307.1166 15.08859200 80236,6917.822,95.436,540.997,538.376,0.0
53418.0,STARLINK-4481,PAYLOAD,2024-01-15 04:00:08,15.08844375,0.0001758,53.2188,25.5515,91.3382,268.7811,9.566e-05,1.235e-05,0.0,0 STARLINK-4481,1 53418U 22097AG  24015.16676293  .00001235  00000-0  95660-4 0  9994,2 53418  53.2188  25.5515 0001758  91.3382 268.7811 15.08844375 79879,6917.867,95.437,540.948,538.516,0.0
53418.0,STARLINK-4481,PAYLOAD,2024-01-15 10:21:40,15.08852616,0.0001745,53.218,24.3583,104.6361,255.4825,0.00012705,1.735e-05,0.0,0 STARLINK-4481,1 53418U 22097AG  24015.43171495  .00001735  00000-0  12705-3 0  9991,2 53418  53.2180  24.3583 0001745 104.6361 255.4825 15.08852616 79914,6917.842,95.437,540.914,538.5,0.0
53418.0,STARLINK-4481,PAYLOAD,2024-01-16 00:40:09,15.08836341,0.0001596,53.2179,21.672,114.3211,245.7948,-7.6275e-05,-1.502e-05,0.0,0 STARLINK-4481,1 53418U 22097AG  24016.02789221 -.00001502  00000-0 -76275-4 0  9996,2 53418  53.2179  21.6720 0001596 114.3211 245.7948 15.08836341 80008,6917.892,95.438,540.861,538.652,0.0
53418.0,STARLINK-4481,PAYLOAD,2024-01-16 10:12:28,15.08834663,0.0001621,53.2179,19.8992,96.3931,263.7246,2.0575e-05,3.9e-07,0.0,0 STARLINK-4481,1 53418U 22097AG  24016.42533387  .00000039  00000-0  20575-4 0  9994,2 53418  53.2179  19.8992 0001621  96.3931 263.7246 15.08834663 80551,6917.897,95.438,540.883,538.64,0.0
53418.0,STARLINK-4481,PAYLOAD,2024-01-17 03:41:42,15.08848719,0.000154,53.219,16.6266,100.2151,259.9015,4.3969e-05,4.12e-06,0.0,0 STARLINK-4481,1 53418U 22097AG  24017.15396465  .00000412  00000-0  43969-4 0  9996,2 53418  53.2190  16.6266 0001540 100.2151 259.9015 15.08848719 80178,6917.854,95.437,540.784,538.653,0.0
53418.0,STARLINK-4481,PAYLOAD,2024-01-17 05:17:05,15.08851766,0.0001599,53.2182,16.3298,100.5229,259.5944,0.00010015,1.307e-05,0.0,0 STARLINK-4481,1 53418U 22097AG  24017.22020275  .00001307  00000-0  10015-3 0  9996,2 53418  53.2182  16.3298 0001599 100.5229 259.5944 15.08851766 80672,6917.844,95.437,540.816,538.603,0.0
53418.0,STARLINK-4481,PAYLOAD,2024-01-18 03:32:30,15.08834735,0.0001547,53.2172,12.1652,100.1859,259.9308,0.00013059,1.791e-05,0.0,0 STARLINK-4481,1 53418U 22097AG  24018.14757348  .00001791  00000-0  13059-3 0  9994,2 53418  53.2172  12.1652 0001547 100.1859 259.9308 15.08834735 80324,6917.896,95.438,540.832,538.691,0.0
53418.0,STARLINK-4481,PAYLOAD,2024-01-18 08:18:39,15.08844659,0.0001614,53.2179,11.2741,105.6501,254.467,0.00013559,1.871e-05,0.0,0 STARLINK-4481,1 53418U 22097AG  24018.34628720  .00001871  00000-0  13559-3 0  9991,2 53418  53.2179  11.2741 0001614 105.6501 254.4670 15.08844659 80350,6917.866,95.437,540.848,538.615,0.0
53418.0,STARLINK-4481,PAYLOAD,2024-01-19 03:23:17,15.08842318,0.0001572,53.218,7.7077,101.4229,258.694,3.3791e-06,-2.34e-06,0.0,0 STARLINK-4481,1 53418U 22097AG  24019.14117439 -.00000234  00000-0  33791-5 0  9995,2 53418  53.2180   7.7077 0001572 101.4229 258.6940 15.08842318 80477,6917.873,95.437,540.826,538.651,0.0
53418.0,STARLINK-4481,PAYLOAD,2024-01-19 08:09:26,15.08850472,0.0001575,53.2177,6.8151,111.8099,248.3061,7.634e-05,9.27e-06,0.0,0 STARLINK-4481,1 53418U 22097AG  24019.33988640  .00000927  00000-0  76340-4 0  9990,2 53418  53.2177   6.8151 0001575 111.8099 248.3061 15.08850472 80503,6917.848,95.437,540.803,538.624,0.0
53418.0,STARLINK-4481,PAYLOAD,2024-01-20 03:14:04,15.08839097,0.0001751,53.2185,3.2449,119.2995,240.8172,7.8107e-05,9.55e-06,0.0,0 STARLINK-4481,1 53418U 22097AG  24020.13477308  .00000955  00000-0  78107-4 0  9998,2 53418  53.2185   3.2449 0001751 119.2995 240.8172 15.08839097 80629,6917.883,95.438,540.959,538.537,0.0
53418.0,STARLINK-4481,PAYLOAD,2024-01-20 06:24:50,15.0884393,0.0001623,53.2188,2.6536,91.4179,268.6999,0.00012265,1.665e-05,0.0,0 STARLINK-4481,1 53418U 22097AG  24020.26725150  .00001665  00000-0  12265-3 0  9994,2 53418  53.2188   2.6536 0001623  91.4179 268.6999 15.08843930 81138,6917.868,95.437,540.856,538.611,0.0
53418.0,STARLINK-4481,PAYLOAD,2024-01-20 22:18:42,15.08838315,0.0001671,53.2187,359.6805,79.1283,280.9897,5.8973e-05,6.51e-06,0.0,0 STARLINK-4481,1 53418U 22097AG  24020.92965754  .00000651  00000-0  58973-4 0  9994,2 53418  53.2187 359.6805 0001671  79.1283 280.9897 15.08838315 81239,6917.886,95.438,540.907,538.595,0.0
53418.0,STARLINK-4481,PAYLOAD,2024-01-21 04:40:14,15.08840626,0.0001581,53.2183,358.4889,112.4956,247.6203,0.00011397,1.526e-05,0.0,0 STARLINK-4481,1 53418U 22097AG  24021.19461532  .00001526  00000-0  11397-3 0  9999,2 53418  53.2183 358.4889 0001581 112.4956 247.6203 15.08840626 81275,6917.878,95.438,540.837,538.65,0.0
53418.0,STARLINK-4481,PAYLOAD,2024-01-21 07:51:00,15.08846775,0.0001645,53.2176,357.8928,103.2033,256.9142,0.00015311,2.15e-05,0.0,0 STARLINK-4481,1 53418U 22097AG  24021.32709451  .00002150  00000-0  15311-3 0  9993,2 53418  53.2176 357.8928 0001645 103.2033 256.9142 15.08846775 80803,6917.86,95.437,540.863,538.587,0.0
53418.0,STARLINK-4481,PAYLOAD,2024-01-22 04:31:01,15.08851915,0.0001807,53.2202,354.0266,90.6449,269.475,6.8613e-05,8.04e-06,0.0,0 STARLINK-4481,1 53418U 22097AG  24022.18820911  .00000804  00000-0  68613-4 0  9991,2 53418  53.2202 354.0266 0001807  90.6449 269.4750 15.08851915 81422,6917.844,95.437,540.959,538.459,0.0
53418.0,STARLINK-4481,PAYLOAD,2024-01-22 07:41:47,15.08855301,0.0001745,53.2195,353.4293,96.3308,263.7882,9.2414e-05,1.184e-05,0.0,0 STARLINK-4481,1 53418U 22097AG  24022.32068485  .00001184  00000-0  92414-4 0  9995,2 53418  53.2195 353.4293 0001745  96.3308 263.7882 15.08855301 81442,6917.834,95.437,540.906,538.491,0.0
53418.0,STARLINK-4481,PAYLOAD,2024-01-23 02:46:30,15.08655498,0.0002975,53.2189,349.8568,111.6422,248.4887,0.0028187,0.00044631,0.0,0 STARLINK-4481,1 53418U 22097AG  24023.11562997  .00044631  00000-0  28187-2 0  9998,2 53418  53.2189 349.8568 0002975 111.6422 248.4887 15.08655498 81072,6918.444,95.449,542.368,538.251,0.0
53418.0,STARLINK-4481,PAYLOAD,2024-01-23 04:21:54,15.08640713,0.000298,53.2191,349.5588,105.9984,254.1337,0.0031649,0.00050167,0.0,0 STARLINK-4481,1 53418U 22097AG  24023.18188424  .00050167  00000-0  31649-2 0  9992,2 53418  53.2191 349.5588 0002980 105.9984 254.1337 15.08640713 81572,6918.49,95.45,542.416,538.293,0.0
53418.0,STARLINK-4481,PAYLOAD,2024-01-23 09:07:57,15.08854301,0.0001318,53.2176,348.6733,99.7164,260.3977,0.00020474,2.973e-05,0.0,0 STARLINK-4481,1 53418U 22097AG  24023.38052384  .00002973  00000-0  20474-3 0  9996,2 53418  53.2176 348.6733 0001318  99.7164 260.3977 15.08854301 81110,6917.837,95.437,540.613,538.79,0.0
53418.0,STARLINK-4481,PAYLOAD,2024-01-24 02:37:12,15.08842009,0.0001566,53.2182,345.4021,100.6379,259.479,-5.0368e-05,-1.09e-05,0.0,0 STARLINK-4481,1 53418U 22097AG  24024.10917222 -.00001090  00000-0 -50368-4 0  9995,2 53418  53.2182 345.4021 0001566 100.6379 259.4790 15.08842009 81223,6917.874,95.437,540.823,538.656,0.0
53418.0,STARLINK-4481,PAYLOAD,2024-01-24 04:12:35,15.08845638,0.0001632,53.2189,345.1043,103.6933,256.4241,1.4652e-05,-5.5e-07,0.0,0 STARLINK-4481,1 53418U 22097AG  24024.17541063 -.00000055  00000-0  14652-4 0  9993,2 53418  53.2189 345.1043 0001632 103.6933 256.4241 15.08845638 81728,6917.863,95.437,540.857,538.599,0.0
53418.0,STARLINK-4481,PAYLOAD,2024-01-25 04:03:22,15.08839935,0.0001882,53.2195,340.6512,117.5249,242.5935,1.2214e-05,-9.4e-07,0.0,0 STARLINK-4481,1 53418U 22097AG  24025.16901607 -.00000094  00000-0  12214-4 0  9992,2 53418  53.2195 340.6512 0001882 117.5249 242.5935 15.08839935 81388,6917.881,95.438,541.048,538.444,0.0
53418.0,STARLINK-4481,PAYLOAD,2024-01-26 03:54:09,15.08854448,0.0001515,53.219,336.1906,93.0081,267.1084,0.000185,2.659e-05,0.0,0 STARLINK-4481,1 53418U 22097AG  24026.16260879  .00002659  00000-0  18500-3 0  9993,2 53418  53.2190 336.1906 0001515  93.0081 267.1084 15.08854448 81536,6917.836,95.437,540.749,538.653,0.0
53418.0,STARLINK-4481,PAYLOAD,2024-01-27 03:44:57,15.08843073,0.0001891,53.2201,331.731,63.4046,296.714,8.4824e-05,1.062e-05,0.0,0 STARLINK-4481,1 53418U 22097AG  24027.15621826  .00001062  00000-0  84824-4 0  9996,2 53418  53.2201 331.7310 0001891  63.4046 296.7140 15.08843073 81687,6917.871,95.437,541.044,538.428,0.0
